[{"OBJECT_NAME":"QIANFAN-28","OBJECT_ID":"2024-185K","EPOCH":"2026-03-09T23:07:15.953376","MEAN_MOTION":14.28222603,"ECCENTRICITY":0.00077666,"INCLINATION":88.9768,"RA_OF_ASC_NODE":66.7039,"ARG_OF_PERICENTER":21.3295,"MEAN_ANOMALY":338.8222,"EPHEMERIS_TYPE":0,"CLASSIFICATION_TYPE":"U","NORAD_CAT_ID":61561,"ELEMENT_SET_NO":999,"REV_AT_EPOCH":8262,"BSTAR":0.0004308774,"MEAN_MOTION_DOT":1.088e-5,"MEAN_MOTION_DDOT":0},{"OBJECT_NAME":"ONEWEB-0455","OBJECT_ID":"2022-012Z","EPOCH":"2026-03-09T15:54:10.924416","MEAN_MOTION":14.23592085,"ECCENTRICITY":0.00190416,"INCLINATION":87.5271,"RA_OF_ASC_NODE":300.432,"ARG_OF_PERICENTER":104.9241,"MEAN_ANOMALY":255.406,"EPHEMERIS_TYPE":0,"CLASSIFICATION_TYPE":"U","NORAD_CAT_ID":51645,"ELEMENT_SET_NO":999,"REV_AT_EPOCH":21198,"BSTAR":0.00012593196,"MEAN_MOTION_DOT":3.05e-6,"MEAN_MOTION_DDOT":0}]
